NORAD_CAT_ID,OBJECT_NAME,OBJECT_TYPE,EPOCH,MEAN_MOTION,ECCENTRICITY,INCLINATION,RA_OF_ASC_NODE,ARG_OF_PERICENTER,MEAN_ANOMALY,BSTAR,MEAN_MOTION_DOT,MEAN_MOTION_DDOT,TLE_LINE0,TLE_LINE1,TLE_LINE2,SEMIMAJOR_AXIS,PERIOD,APOGEE,PERIGEE,DECAYED
56810.0,STARLINK-6031,PAYLOAD,2023-09-15 14:00:01,15.51216676,0.0003367,69.9993,112.0789,264.2999,288.2416,0.00052143,0.00030574,0.0,0 STARLINK-6031,1 56810U 23078AV  23258.58334491  .00030574  00000-0  52143-3 0  9994,2 56810  69.9993 112.0789 0003367 264.2999 288.2416 15.51216676  6057,6791.31,92.83,415.461,410.888,0.0
56810.0,STARLINK-6031,PAYLOAD,2023-09-15 20:00:01,15.5122928,0.0003451,69.9991,111.3953,268.9984,239.2298,-0.00025494,-0.00015114,0.0,0 STARLINK-6031,1 56810U 23078AV  23258.83334491 -.00015114  00000-0 -25494-3 0  9996,2 56810  69.9991 111.3953 0003451 268.9984 239.2298 15.51229280 17173,6791.273,92.83,415.482,410.794,0.0
56810.0,STARLINK-6031,PAYLOAD,2023-09-16 12:00:00,15.51233654,0.0003459,69.9988,109.5722,261.8726,8.1875,-0.016031,-0.00859848,0.0,0 STARLINK-6031,1 56810U 23078AV  23259.50001157 -.00859848  00000-0 -16031-1 0  9996,2 56810  69.9988 109.5722 0003459 261.8726   8.1875 15.51233654 17282,6791.26,92.829,415.474,410.776,0.0
56810.0,STARLINK-6031,PAYLOAD,2023-09-16 14:00:01,15.51097996,0.0003527,69.9991,109.3443,263.6765,111.5856,-0.016883,-0.00897503,0.0,0 STARLINK-6031,1 56810U 23078AV  23259.58334491 -.00897503  00000-0 -16883-1 0  9999,2 56810  69.9991 109.3443 0003527 263.6765 111.5856 15.51097996  5915,6791.656,92.837,415.916,411.126,0.0
56810.0,STARLINK-6031,PAYLOAD,2023-09-16 20:00:01,15.50610475,0.0003503,69.9991,108.6611,267.1198,63.4958,-0.017547,-0.00914936,0.0,0 STARLINK-6031,1 56810U 23078AV  23259.83334491 -.00914936  00000-0 -17547-1 0  9995,2 56810  69.9991 108.6611 0003503 267.1198  63.4958 15.50610475 17336,6793.08,92.867,417.324,412.565,0.0
56810.0,STARLINK-6031,PAYLOAD,2023-09-16 23:13:52,15.50756472,0.0003542,69.9974,108.2965,257.9537,102.1252,-0.0010256,-0.00058978,0.0,0 STARLINK-6031,1 56810U 23078AV  23259.96796804 -.00058978  00000-0 -10256-2 0  9995,2 56810  69.9974 108.2965 0003542 257.9537 102.1252 15.50756472 17350,6792.653,92.858,416.924,412.112,0.0
56810.0,STARLINK-6031,PAYLOAD,2023-09-17 16:16:42,15.49946005,0.0007804,69.9977,106.3613,306.5523,53.4944,-0.0026105,-0.00144253,0.0,0 STARLINK-6031,1 56810U 23078AV  23260.67827066 -.00144253  00000-0 -26105-2 0  9992,2 56810  69.9977 106.3613 0007804 306.5523  53.4944 15.49946005 17462,6795.021,92.906,422.189,411.583,0.0
56810.0,STARLINK-6031,PAYLOAD,2023-09-18 04:00:00,15.48015873,0.0003318,69.9987,105.0261,269.1326,295.8867,-0.019811,-0.0095325,0.0,0 STARLINK-6031,1 56810U 23078AV  23261.16667824 -.00953250  00000-0 -19811-1 0  9991,2 56810  69.9987 105.0261 0003318 269.1326 295.8867 15.48015873 17532,6800.668,93.022,424.789,420.276,0.0
56810.0,STARLINK-6031,PAYLOAD,2023-09-18 14:00:01,15.47185691,0.0003524,69.9994,103.8932,264.7505,100.9518,-0.019409,-0.00910875,0.0,0 STARLINK-6031,1 56810U 23078AV  23261.58334491 -.00910875  00000-0 -19409-1 0  9997,2 56810  69.9994 103.8932 0003524 264.7505 100.9518 15.47185691  6026,6803.1,93.072,427.363,422.568,0.0
56810.0,STARLINK-6031,PAYLOAD,2023-09-18 20:00:01,15.46691336,0.000351,69.9992,103.2141,268.0597,49.4781,-0.019969,-0.00920399,0.0,0 STARLINK-6031,1 56810U 23078AV  23261.83334491 -.00920399  00000-0 -19969-1 0  9998,2 56810  69.9992 103.2141 0003510 268.0597  49.4781 15.46691336 17649,6804.55,93.102,428.803,424.027,0.0
56810.0,STARLINK-6031,PAYLOAD,2023-09-18 22:00:00,15.46519915,0.0003485,69.9993,102.9877,271.4548,149.9285,-0.019683,-0.00903271,0.0,0 STARLINK-6031,1 56810U 23078AV  23261.91667824 -.00903271  00000-0 -19683-1 0  9999,2 56810  69.9993 102.9877 0003485 271.4548 149.9285 15.46519915  6024,6805.053,93.112,429.289,424.546,0.0
56810.0,STARLINK-6031,PAYLOAD,2023-09-19 20:00:01,15.44732863,0.0003316,69.9994,100.5024,269.6619,210.7756,-0.021273,-0.0091685,0.0,0 STARLINK-6031,1 56810U 23078AV  23262.83334491 -.00916850  00000-0 -21273-1 0  9997,2 56810  69.9994 100.5024 0003316 269.6619 210.7756 15.44732863 17797,6810.3,93.22,434.423,429.907,0.0
56810.0,STARLINK-6031,PAYLOAD,2023-09-20 14:00:01,15.43280288,0.0003475,69.9997,98.4739,263.166,64.8114,-0.022497,-0.00922444,0.0,0 STARLINK-6031,1 56810U 23078AV  23263.58334491 -.00922444  00000-0 -22497-1 0  9995,2 56810  69.9997  98.4739 0003475 263.1660  64.8114 15.43280288  6016,6814.573,93.308,438.806,434.07,0.0
56810.0,STARLINK-6031,PAYLOAD,2023-09-20 20:00:01,15.42768575,0.0003345,69.9995,97.7989,267.3721,8.9264,-0.022388,-0.00903787,0.0,0 STARLINK-6031,1 56810U 23078AV  23263.83334491 -.00903787  00000-0 -22388-1 0  9991,2 56810  69.9995  97.7989 0003345 267.3721   8.9264 15.42768575 17952,6816.08,93.339,440.225,435.665,0.0
56810.0,STARLINK-6031,PAYLOAD,2023-09-20 22:00:00,15.42597946,0.0003409,69.9996,97.5739,270.8312,108.1387,-0.022046,-0.00886341,0.0,0 STARLINK-6031,1 56810U 23078AV  23263.91667824 -.00886341  00000-0 -22046-1 0  9996,2 56810  69.9996  97.5739 0003409 270.8312 108.1387 15.42597946  5914,6816.582,93.349,440.771,436.123,0.0
56810.0,STARLINK-6031,PAYLOAD,2023-09-21 12:00:00,15.41461004,0.0003475,69.9998,96.0014,264.8409,111.4442,-0.022813,-0.00883149,0.0,0 STARLINK-6031,1 56810U 23078AV  23264.50001157 -.00883149  00000-0 -22813-1 0  9998,2 56810  69.9998  96.0014 0003475 264.8409 111.4442 15.41461004 18051,6819.934,93.418,444.169,439.429,0.0
56810.0,STARLINK-6031,PAYLOAD,2023-09-21 14:00:01,15.41326974,0.000332,70.0,95.7768,265.8709,212.6847,-0.02425,-0.00930408,0.0,0 STARLINK-6031,1 56810U 23078AV  23264.58334491 -.00930408  00000-0 -24250-1 0  9994,2 56810  70.0000  95.7768 0003320 265.8709 212.6847 15.41326974  6015,6820.329,93.426,444.458,439.93,0.0
56810.0,STARLINK-6031,PAYLOAD,2023-09-21 20:00:01,15.40814038,0.0003472,69.9998,95.1039,270.8799,154.2352,-0.024006,-0.00907436,0.0,0 STARLINK-6031,1 56810U 23078AV  23264.83334491 -.00907436  00000-0 -24006-1 0  9996,2 56810  69.9998  95.1039 0003472 270.8799 154.2352 15.40814038 18103,6821.843,93.457,446.076,441.339,0.0
56810.0,STARLINK-6031,PAYLOAD,2023-09-21 22:00:01,15.40638614,0.0003321,69.9997,94.8794,271.8306,255.4352,-0.023398,-0.00881423,0.0,0 STARLINK-6031,1 56810U 23078AV  23264.91668981 -.00881423  00000-0 -23398-1 0  9999,2 56810  69.9997  94.8794 0003321 271.8306 255.4352 15.40638614  5962,6822.36,93.468,446.491,441.96,0.0
56810.0,STARLINK-6031,PAYLOAD,2023-09-22 12:00:00,15.39512117,0.0003353,70.0,93.3113,265.0818,255.3237,-0.024673,-0.00894362,0.0,0 STARLINK-6031,1 56810U 23078AV  23265.50001157 -.00894362  00000-0 -24673-1 0  9994,2 56810  70.0000  93.3113 0003353 265.0818 255.3237 15.39512117 18206,6825.688,93.536,449.842,445.264,0.0
56810.0,STARLINK-6031,PAYLOAD,2023-09-22 14:00:01,15.39374537,0.0003472,70.0002,93.0875,263.4218,358.6691,-0.02601,-0.00934999,0.0,0 STARLINK-6031,1 56810U 23078AV  23265.58334491 -.00934999  00000-0 -26010-1 0  9990,2 56810  70.0002  93.0875 0003472 263.4218 358.6691 15.39374537  5814,6826.095,93.544,450.33,445.59,0.0
56810.0,STARLINK-6031,PAYLOAD,2023-09-22 22:00:00,15.3868104,0.0003518,70.0001,92.1927,270.4359,37.9563,-0.024936,-0.00880707,0.0,0 STARLINK-6031,1 56810U 23078AV  23265.91667824 -.00880707  00000-0 -24936-1 0  9998,2 56810  70.0001  92.1927 0003518 270.4359  37.9563 15.38681040  5865,6828.146,93.587,452.413,447.608,0.0
56810.0,STARLINK-6031,PAYLOAD,2023-09-23 04:00:00,15.38235275,0.0003415,69.9997,91.5222,267.9113,344.6654,-0.027919,-0.00964099,0.0,0 STARLINK-6031,1 56810U 23078AV  23266.16667824 -.00964099  00000-0 -27919-1 0  9997,2 56810  69.9997  91.5222 0003415 267.9113 344.6654 15.38235275 18310,6829.465,93.614,453.662,448.997,0.0
56810.0,STARLINK-6031,PAYLOAD,2023-09-23 12:00:00,15.37556342,0.0003504,70.0,90.629,263.2065,34.2824,-0.02634,-0.00895482,0.0,0 STARLINK-6031,1 56810U 23078AV  23266.50001157 -.00895482  00000-0 -26340-1 0  9992,2 56810  70.0000  90.6290 0003504 263.2065  34.2824 15.37556342 18363,6831.475,93.655,455.734,450.946,0.0
56810.0,STARLINK-6031,PAYLOAD,2023-09-23 14:00:01,15.37419361,0.0003546,70.0001,90.4059,266.0368,132.5514,-0.027892,-0.00940055,0.0,0 STARLINK-6031,1 56810U 23078AV  23266.58334491 -.00940055  00000-0 -27892-1 0  9990,2 56810  70.0001  90.4059 0003546 266.0368 132.5514 15.37419361  5978,6831.881,93.663,456.168,451.323,0.0
56810.0,STARLINK-6031,PAYLOAD,2023-09-24 04:00:01,15.36273233,0.0003452,69.9996,88.8451,268.9971,116.0366,-0.029508,-0.0095671,0.0,0 STARLINK-6031,1 56810U 23078AV  23267.16668981 -.00956710  00000-0 -29508-1 0  9990,2 56810  69.9996  88.8451 0003452 268.9971 116.0366 15.36273233 18467,6835.278,93.733,459.503,454.784,0.0
56810.0,STARLINK-6031,PAYLOAD,2023-09-24 12:00:00,15.35600983,0.0003417,69.9998,87.9547,265.5542,161.9779,-0.028176,-0.0089889,0.0,0 STARLINK-6031,1 56810U 23078AV  23267.50001157 -.00898890  00000-0 -28176-1 0  9998,2 56810  69.9998  87.9547 0003417 265.5542 161.9779 15.35600983 18511,6837.273,93.774,461.474,456.802,0.0
56810.0,STARLINK-6031,PAYLOAD,2023-09-24 14:00:01,15.3546133,0.0003338,70.0,87.7321,265.1119,262.9342,-0.029745,-0.00940896,0.0,0 STARLINK-6031,1 56810U 23078AV  23267.58334491 -.00940896  00000-0 -29745-1 0  9993,2 56810  70.0000  87.7321 0003338 265.1119 262.9342 15.35461330  6015,6837.688,93.783,461.835,457.27,0.0
56810.0,STARLINK-6031,PAYLOAD,2023-09-24 22:00:00,15.34767336,0.0003282,69.9998,86.8425,270.5484,299.1035,-0.028222,-0.00878311,0.0,0 STARLINK-6031,1 56810U 23078AV  23267.91667824 -.00878311  00000-0 -28222-1 0  9990,2 56810  69.9998  86.8425 0003282 270.5484 299.1035 15.34767336  5975,6839.749,93.825,463.858,459.369,0.0
56810.0,STARLINK-6031,PAYLOAD,2023-09-25 04:00:00,15.3412375,0.0002534,69.9993,86.1756,269.2158,241.2186,-0.023388,-0.00715443,0.0,0 STARLINK-6031,1 56810U 23078AV  23268.16667824 -.00715443  00000-0 -23388-1 0  9992,2 56810  69.9993  86.1756 0002534 269.2158 241.2186 15.34123750 18618,6841.661,93.865,465.26,461.793,0.0
